ONEWEB-0492             
1 54114U 22138B   25314.35258839  .00000106  00000+0  23316-3 0  9993
2 54114  87.9223 348.5147 0002093  94.7963 265.3409 13.19727771147974
ONEWEB-0495             
1 54115U 22138C   25314.55792241 -.00000021  00000+0 -84518-4 0  9996
2 54115  87.9220 348.4791 0002539 107.1790 252.9621 13.19725339147985
ONEWEB-0497             
1 54116U 22138D   25314.79801742  .00000047  00000+0  84509-4 0  9996
2 54116  87.9227 348.4154 0001925  96.7938 263.3414 13.19726398148007
ONEWEB-0499             
1 54117U 22138E   25314.47817250 -.00000015  00000+0 -69667-4 0  9998
2 54117  87.9227 348.4925 0001903 103.7415 256.3930 13.19725696147979
ONEWEB-0500             
1 54118U 22138F   25314.55635179 -.00000063  00000+0 -18876-3 0  9994
2 54118  87.9225 348.4640 0001906  94.2908 265.8443 13.19726214147999
ONEWEB-0501             
1 54119U 22138G   25314.81381386  .00000085  00000+0  18029-3 0  9994
2 54119  87.9231 348.4090 0002190 103.6903 256.4473 13.19726844148003
ONEWEB-0502             
1 54120U 22138H   25314.79959175  .00000012  00000+0 -33544-5 0  9992
2 54120  87.9231 348.3941 0001958 103.4341 256.7010 13.19726747148028
ONEWEB-0503             
1 54121U 22138J   25314.78853874  .00000020  00000+0  18804-4 0  9990
2 54121  87.9231 348.4003 0001612 101.3127 258.8187 13.19726281148015
